satname,norad_id,inclination_deg,eccentricity,mean_motion_rev_per_day,perigee_km,apogee_km,l1,l2
STARLINK-1338,45532,53.0538,0.0001469,15.06399193,546.1966972116579,548.2313653446472,1 45532U 20025B   25274.80042624  .00002437  00000+0  18244-3 0  9991,2 45532  53.0538  99.8988 0001469  84.8236 275.2920 15.06399193301149
STARLINK-1350,45535,53.0754,0.0001344,15.31345606,470.87599795179267,472.717260111277,1 45535U 20025E   25274.66767628  .00023764  00000+0  78364-3 0  9991,2 45535  53.0754  57.3334 0001344 131.0877 229.0240 15.31345606301751
STARLINK-1362,45538,53.0532,0.000141,15.06397271,546.2434466168634,548.19639726885,1 45538U 20025H   25274.76626741  .00007179  00000+0  50037-3 0  9994,2 45538  53.0532  99.7717 0001410  82.4612 277.6537 15.06397271301141
STARLINK-1368,45540,53.0549,0.0001425,15.06403618,546.2136087221816,548.1873299009349,1 45540U 20025K   25274.70459185  .00000181  00000+0  31067-4 0  9996,2 45540  53.0549 100.3296 0001425  96.7546 263.3605 15.06403618301122
STARLINK-1371,45542,53.0532,0.0001368,15.06405667,546.2468041472066,548.1415747606407,1 45542U 20025M   25274.80778762  .00000669  00000+0  63815-4 0  9991,2 45542  53.0532  99.8674 0001368  85.0149 275.0996 15.06405667301145
STARLINK-1372,45543,53.053,0.0001356,15.06407747,546.2487405559441,548.1268886456628,1 45543U 20025N   25274.77829877  .00000837  00000+0  75060-4 0  9994,2 45543  53.0530  99.9993 0001356  95.6387 264.4757 15.06407747300234
STARLINK-1373,45544,53.0532,0.0001201,15.06389335,546.4125065325788,548.0759831075848,1 45544U 20025P   25274.66403816 -.00000490  00000+0 -13994-4 0  9999,2 45544  53.0532 100.5118 0001201  84.7283 275.3843 15.06389335301126
STARLINK-1294,45551,53.0511,0.0005766,15.54961557,398.354801292694,406.1739601649506,1 45551U 20025W   25274.83335647  .00203073  00000+0  29096-2 0  9990,2 45551  53.0511  43.6039 0005766 297.3854   7.0195 15.54961557  5942
STARLINK-1323,45553,53.0349,0.0003529,15.96961193,280.50465496489414,285.20598334375245,1 45553U 20025Y   25274.82803374  .00530002  12863-3  12038-2 0  9995,2 45553  53.0349  23.3976 0003529  50.6568 309.4773 15.96961193300924
STARLINK-1325,45554,53.0606,0.0005902,15.48395213,417.4070457304215,425.4332429836204,1 45554U 20025Z   25274.83335647  .00196372  00000+0  35612-2 0  9997,2 45554  53.0606  35.8440 0005902   3.9219  93.5158 15.48395213  5949
STARLINK-1327,45555,53.0535,0.0001655,15.06399606,546.0666201056056,548.3589108779843,1 45555U 20025AA  25274.83542573  .00005752  00000+0  40471-3 0  9997,2 45555  53.0535  79.7420 0001655 117.5160 242.5997 15.06399606301427
STARLINK-1336,45557,53.0394,0.0001193,15.92228346,295.25228024962234,296.84474091244647,1 45557U 20025AC  25274.83745611  .00469883  96781-4  13766-2 0  9998,2 45557  53.0394  29.2506 0001193 113.2608 246.8543 15.92228346302134
STARLINK-1342,45558,53.0434,0.0003463,16.06784385,253.38198694362018,257.9765680974306,1 45558U 20025AD  25274.81397140  .00867738  40968-3  11084-2 0  9994,2 45558  53.0434  25.0406 0003463 357.8734   2.2283 16.06784385302187
STARLINK-1356,45564,53.0535,0.0001519,15.06407831,546.135600354889,548.2395139553537,1 45564U 20025AK  25274.83910975  .00002551  00000+0  19003-3 0  9993,2 45564  53.0535  79.7247 0001519  99.3021 260.8140 15.06407831301429
STARLINK-1357,45565,53.0618,0.0006817,15.27194538,479.5254931447007,488.88160825152227,1 45565U 20025AL  25274.83335647  .00181634  00000+0  65706-2 0  9991,2 45565  53.0618  69.6319 0006817 169.1831  39.0263 15.27194538  5884
STARLINK-1361,45567,53.0518,0.000128,15.06406056,546.306554993037,548.079439472328,1 45567U 20025AN  25274.72485395  .00001698  00000+0  13285-3 0  9994,2 45567  53.0518  80.2376 0001280  89.0433 271.0703 15.06406056301417
STARLINK-1363,45568,53.0534,0.0001532,15.06407453,546.1277557612448,548.2496755605225,1 45568U 20025AP  25274.73962539  .00001447  00000+0  11599-3 0  9994,2 45568  53.0534  80.4128 0001532  83.7275 276.3888 15.06407453301401
STARLINK-1366,45569,53.0535,0.0001358,15.06396544,546.2816863281887,548.1626138733563,1 45569U 20025AQ  25274.66220902  .00008595  00000+0  59526-3 0  9991,2 45569  53.0535  80.5194 0001358  88.3464 271.7680 15.06396544301399
STARLINK-1376,45570,53.0537,0.0001275,15.06403264,546.3185736007736,548.0845349321116,1 45570U 20025AR  25274.72116943  .00007926  00000+0  55037-3 0  9999,2 45570  53.0537  80.2560 0001275  84.2213 275.8921 15.06403264301405
STARLINK-1320,45572,53.0597,0.0007999,15.3782807,447.0693726672107,457.9970788944147,1 45572U 20025AT  25274.83335647  .00100754  00000+0  26434-2 0  9998,2 45572  53.0597  30.1402 0007999 243.4345 278.7758 15.37828070  5902
STARLINK-1321,45573,53.0537,0.0001344,15.06417163,546.2281965380998,548.0897160911572,1 45573U 20025AU  25274.84003198  .00003278  00000+0  23877-3 0  9995,2 45573  53.0537  69.7203 0001344  86.5146 273.5997 15.06417163301266
STARLINK-1328,45576,53.054,0.0004983,15.58346633,389.0680149625914,395.81557378906655,1 45576U 20025AX  25274.83335647  .00248458  00000+0  31208-2 0  9991,2 45576  53.0540  58.0250 0004983 279.8338 339.1318 15.58346633  5928
STARLINK-1331,45578,53.0533,0.0001256,15.06409397,546.3129374748487,548.0525777979674,1 45578U 20025AZ  25274.81791708  .00006473  00000+0  45295-3 0  9996,2 45578  53.0533  69.8202 0001256  88.8618 271.2515 15.06409397301573
STARLINK-1333,45580,53.0534,0.0001329,15.06409267,546.2627810148297,548.1035311123114,1 45580U 20025BB  25274.75804103  .00006958  00000+0  48539-3 0  9998,2 45580  53.0534  80.0884 0001329  90.0797 270.0344 15.06409267301418
STARLINK-1335,45581,53.0556,0.0001565,15.06413353,546.086822574167,548.254443863364,1 45581U 20025BC  25274.69628296  .00002713  00000+0  20088-3 0  9993,2 45581  53.0556  70.3673 0001565  81.0407 279.0759 15.06413353301545
STARLINK-1337,45582,53.0538,0.000136,15.06410881,546.2363665726798,548.1200523096468,1 45582U 20025BD  25274.71839704  .00010186  00000+0  70149-3 0  9991,2 45582  53.0538  70.2682 0001360  99.3095 260.8047 15.06410881301544
STARLINK-1347,45586,53.0553,0.0005547,15.26614309,482.13474173164104,489.7497512476957,1 45586U 20025BH  25274.83335647  .00153392  00000+0  56718-2 0  9997,2 45586  53.0553  59.9769 0005547 179.6053 122.8954 15.26614309  5887
STARLINK-1360,45588,53.0481,0.0005081,15.68941662,358.50171072161265,365.3509630845738,1 45588U 20025BK  25274.83335647  .00042301  00000+0  36332-3 0  9997,2 45588  53.0481 347.8318 0005081  13.8142  27.5971 15.68941662  6005
STARLINK-1364,45589,53.0546,0.0001183,15.06424126,546.318356222816,547.9568761970122,1 45589U 20025BL  25274.72208811  .00008722  00000+0  60331-3 0  9993,2 45589  53.0546  70.2541 0001183  81.7696 278.3427 15.06424126301542
STARLINK-1365,45590,53.0529,0.0001433,15.06387384,546.2578164418373,548.2426324203589,1 45590U 20025BM  25274.80410480 -.00002742  00000+0 -16529-3 0  9999,2 45590  53.0529  99.8820 0001433  92.2461 267.8692 15.06387384301155
STARLINK-1443,45660,53.0532,0.0001107,15.06434023,546.3406597637841,547.8739088483289,1 45660U 20035D   25274.65666167  .00010772  00000+0  74027-3 0  9993,2 45660  53.0532  60.5459 0001107  85.8204 274.2912 15.06434023294769
STARLINK-1446,45663,53.0288,0.0003957,15.30486091,471.6494528753792,477.0725197817601,1 45663U 20035G   25274.70419150  .00041177  00000+0  13821-2 0  9997,2 45663  53.0288  28.6600 0003957 166.5383 193.5723 15.30486091295216
STARLINK-1448,45665,53.053,0.0001294,15.06376949,546.3860575888548,548.178356079583,1 45665U 20035J   25274.66036265  .00004837  00000+0  34358-3 0  9997,2 45665  53.0530  60.5254 0001294 107.7823 252.3308 15.06376949294750
STARLINK-1451,45668,53.0533,0.0001257,15.064181,546.2855752598662,548.0265939413339,1 45668U 20035M   25274.66406757  .00006676  00000+0  46641-3 0  9998,2 45668  53.0533  60.8292 0001257  86.7164 273.3969 15.06418100294767
STARLINK-1452,45669,53.0416,0.0006416,15.23331498,491.3898786621876,500.2105148730798,1 45669U 20035N   25274.83335647  .00155546  00000+0  63420-2 0  9991,2 45669  53.0416  44.9285 0006416 263.3609 254.7099 15.23331498  5874
STARLINK-1453,45670,53.0555,0.0001851,15.06391576,545.9554896082427,548.5192632023873,1 45670U 20035P   25274.34242909  .00009229  00000+0  63783-3 0  9996,2 45670  53.0555  31.9584 0001851 105.4488 254.6705 15.06391576295022
STARLINK-1454,45671,53.0548,0.0001474,15.06426579,546.109313958792,548.1508826993786,1 45671U 20035Q   25274.81883354  .00009275  00000+0  64027-3 0  9997,2 45671  53.0548  59.8176 0001474  80.8573 279.2583 15.06426579294773
STARLINK-1456,45673,53.0543,0.0001264,15.06413352,546.2952773983498,548.0459951688026,1 45673U 20035S   25274.70088507  .00006195  00000+0  43429-3 0  9995,2 45673  53.0543  60.3491 0001264  81.7255 278.3877 15.06413352294772
STARLINK-1457,45674,53.0542,0.0001128,15.06415167,546.3838995838341,547.946247731651,1 45674U 20035T   25274.70825631  .00006005  00000+0  42154-3 0  9997,2 45674  53.0542  60.3131 0001128  97.2198 262.8919 15.06415167294748
STARLINK-1458,45675,53.0543,0.0001552,15.06377608,546.2053622959284,548.3550117907871,1 45675U 20035U   25274.69721029 -.00006567  00000+0 -42260-3 0  9995,2 45675  53.0543  60.3616 0001552  89.6324 270.4843 15.06377608294732
STARLINK-1460,45676,53.0536,0.0001214,15.06402662,546.3626629792143,548.0441356281663,1 45676U 20035V   25274.66772301  .00002998  00000+0  22007-3 0  9991,2 45676  53.0536  60.4939 0001214  93.3981 266.7146 15.06402662294722
STARLINK-1392,45677,53.0537,0.0001399,15.06421477,546.1768877539753,548.1145818631749,1 45677U 20035W   25274.67877227  .00007056  00000+0  49186-3 0  9993,2 45677  53.0537  60.4455 0001399  84.7564 275.3585 15.06421477294764
STARLINK-1394,45679,53.0542,0.0001187,15.06430157,546.2971047156434,547.9411605215273,1 45679U 20035Y   25274.67600382  .00011253  00000+0  77249-3 0  9996,2 45679  53.0542  50.4577 0001187  89.2327 270.8798 15.06430157294905
